start=new Date('2022-03-24T00:00:00.000Z').valueOf();
sats=[{"REF_FRAME":"TEME","OBJECT_NAME":"STARLINK-2565","MEAN_MOTION_DDOT":"0.0000000000000","APOAPSIS":"548.296","PERIAPSIS":"546.094","SEMIMAJOR_AXIS":"6925.330","BSTAR":"0.00010162000000","CLASSIFICATION_TYPE":"U","EPOCH":"2022-03-23T19:19:23.745216","MEAN_MOTION_DOT":"0.00001233","DECAY_DATE":null,"OBJECT_ID":"2021-036E","PERIOD":"95.592","ELEMENT_SET_NO":"999","OBJECT_TYPE":"PAYLOAD","TLE_LINE1":"1 48280U 21036E   22082.80513594  .00001233  00000-0  10162-3 0  9995","CENTER_NAME":"EARTH","INCLINATION":"53.0547","RA_OF_ASC_NODE":"111.9257","ECCENTRICITY":"0.00015900","TIME_SYSTEM":"UTC","FILE":"3371636","MEAN_MOTION":"15.06406167","ARG_OF_PERICENTER":"63.7005","MEAN_ELEMENT_THEORY":"SGP4","NORAD_CAT_ID":"48280","LAUNCH_DATE":"2021-04-29","RCS_SIZE":"LARGE","COUNTRY_CODE":"US","TLE_LINE2":"2 48280  53.0547 111.9257 0001590  63.7005 296.4147 15.06406167 50026","EPHEMERIS_TYPE":"0","REV_AT_EPOCH":"5002","GP_ID":"199536906","MEAN_ANOMALY":"296.4147","SITE":"AFETR"},{"TLE_LINE1":"1 48281U 21036F   22082.41996596 -.00000728  00000-0 -29946-4 0  9991","INCLINATION":"53.0554","CENTER_NAME":"EARTH","ELEMENT_SET_NO":"999","OBJECT_TYPE":"PAYLOAD","ECCENTRICITY":"0.00016640","TIME_SYSTEM":"UTC","RA_OF_ASC_NODE":"93.6684","APOAPSIS":"548.368","PERIAPSIS":"546.063","SEMIMAJOR_AXIS":"6925.350","OBJECT_NAME":"STARLINK-2520","REF_FRAME":"TEME","MEAN_MOTION_DDOT":"0.0000000000000","MEAN_MOTION_DOT":"-0.00000728","DECAY_DATE":null,"PERIOD":"95.592","OBJECT_ID":"2021-036F","BSTAR":"-0.00002994600000","EPOCH":"2022-03-23T10:04:45.058944","CLASSIFICATION_TYPE":"U","TLE_LINE2":"2 48281  53.0554  93.6684 0001664  54.1499 305.9644 15.06399466 50243","EPHEMERIS_TYPE":"0","SITE":"AFETR","MEAN_ANOMALY":"305.9644","REV_AT_EPOCH":"5024","GP_ID":"199477357","MEAN_MOTION":"15.06399466","FILE":"3371208","ARG_OF_PERICENTER":"54.1499","RCS_SIZE":"LARGE","COUNTRY_CODE":"US","NORAD_CAT_ID":"48281","MEAN_ELEMENT_THEORY":"SGP4","LAUNCH_DATE":"2021-04-29"},{"MEAN_MOTION_DOT":"0.00000521","DECAY_DATE":null,"OBJECT_ID":"2021-036G","PERIOD":"95.592","BSTAR":"0.00005385000000","CLASSIFICATION_TYPE":"U","EPOCH":"2022-03-23T10:38:35.169504","APOAPSIS":"548.345","PERIAPSIS":"546.084","SEMIMAJOR_AXIS":"6925.349","REF_FRAME":"TEME","OBJECT_NAME":"STARLINK-2558","MEAN_MOTION_DDOT":"0.0000000000000","ECCENTRICITY":"0.00016320","TIME_SYSTEM":"UTC","RA_OF_ASC_NODE":"98.5650","TLE_LINE1":"1 48282U 21036G   22082.44346261  .00000521  00000-0  53850-4 0  9993","CENTER_NAME":"EARTH","INCLINATION":"53.0540","ELEMENT_SET_NO":"999","OBJECT_TYPE":"PAYLOAD","RCS_SIZE":"LARGE","COUNTRY_CODE":"US","MEAN_ELEMENT_THEORY":"SGP4","NORAD_CAT_ID":"48282","LAUNCH_DATE":"2021-04-29","FILE":"3371208","MEAN_MOTION":"15.06399711","ARG_OF_PERICENTER":"63.4864","MEAN_ANOMALY":"296.6292","SITE":"AFETR","REV_AT_EPOCH":"5018","GP_ID":"199477599","EPHEMERIS_TYPE":"0","TLE_LINE2":"2 48282  53.0540  98.5650 0001632  63.4864 296.6292 15.06399711 50181"},{"TLE_LINE2":"2 48283  53.0544  97.0933 0001709  54.3453 305.7695 15.06410634 50235","EPHEMERIS_TYPE":"0","MEAN_ANOMALY":"305.7695","SITE":"AFETR","GP_ID":"199537157","REV_AT_EPOCH":"5023","ARG_OF_PERICENTER":"54.3453","FILE":"3371636","MEAN_MOTION":"15.06410634","COUNTRY_CODE":"US","RCS_SIZE":"MEDIUM","LAUNCH_DATE":"2021-04-29","MEAN_ELEMENT_THEORY":"SGP4","NORAD_CAT_ID":"48283","CENTER_NAME":"EARTH","INCLINATION":"53.0544","TLE_LINE1":"1 48283U 21036H   22082.77149799  .00000721  00000-0  67308-4 0  9992","OBJECT_TYPE":"PAYLOAD","ELEMENT_SET_NO":"999","TIME_SYSTEM":"UTC","ECCENTRICITY":"0.00017090","RA_OF_ASC_NODE":"97.0933","SEMIMAJOR_AXIS":"6925.316","APOAPSIS":"548.365","PERIAPSIS":"545.997","MEAN_MOTION_DDOT":"0.0000000000000","REF_FRAME":"TEME","OBJECT_NAME":"STARLINK-2516","OBJECT_ID":"2021-036H","PERIOD":"95.591","MEAN_MOTION_DOT":"0.00000721","DECAY_DATE":null,"CLASSIFICATION_TYPE":"U","EPOCH":"2022-03-23T18:30:57.426336","BSTAR":"0.00006730800000"},{"MEAN_ANOMALY":"304.6073","SITE":"AFETR","GP_ID":"199537407","REV_AT_EPOCH":"5022","EPHEMERIS_TYPE":"0","TLE_LINE2":"2 48284  53.0544  97.0918 0001747  55.5080 304.6073 15.06405288 50226","COUNTRY_CODE":"US","RCS_SIZE":"LARGE","LAUNCH_DATE":"2021-04-29","MEAN_ELEMENT_THEORY":"SGP4","NORAD_CAT_ID":"48284","ARG_OF_PERICENTER":"55.5080","FILE":"3371636","MEAN_MOTION":"15.06405288","TIME_SYSTEM":"UTC","ECCENTRICITY":"0.00017470","RA_OF_ASC_NODE":"97.0918","CENTER_NAME":"EARTH","INCLINATION":"53.0544","TLE_LINE1":"1 48284U 21036J   22082.76781838  .00000684  00000-0  64797-4 0  9995","OBJECT_TYPE":"PAYLOAD","ELEMENT_SET_NO":"999","OBJECT_ID":"2021-036J","PERIOD":"95.592","MEAN_MOTION_DOT":"0.00000684","DECAY_DATE":null,"CLASSIFICATION_TYPE":"U","EPOCH":"2022-03-23T18:25:39.508032","BSTAR":"0.00006479700000","SEMIMAJOR_AXIS":"6925.332","PERIAPSIS":"545.987","APOAPSIS":"548.407","MEAN_MOTION_DDOT":"0.0000000000000","REF_FRAME":"TEME","OBJECT_NAME":"STARLINK-2564"},{"ARG_OF_PERICENTER":"65.6642","FILE":"3371636","MEAN_MOTION":"15.06406833","LAUNCH_DATE":"2021-04-29","MEAN_ELEMENT_THEORY":"SGP4","NORAD_CAT_ID":"48285","COUNTRY_CODE":"US","RCS_SIZE":"LARGE","TLE_LINE2":"2 48285  53.0553  97.1185 0001697  65.6642 294.4524 15.06406833 50228","EPHEMERIS_TYPE":"0","GP_ID":"199537658","REV_AT_EPOCH":"5022","MEAN_ANOMALY":"294.4524","SITE":"AFETR","MEAN_MOTION_DDOT":"0.0000000000000","REF_FRAME":"TEME","OBJECT_NAME":"STARLINK-2548","SEMIMAJOR_AXIS":"6925.328","APOAPSIS":"548.368","PERIAPSIS":"546.017","CLASSIFICATION_TYPE":"U","EPOCH":"2022-03-23T18:20:21.514560","BSTAR":"0.00016765000000","OBJECT_ID":"2021-036K","PERIOD":"95.592","DECAY_DATE":null,"MEAN_MOTION_DOT":"0.00002217","OBJECT_TYPE":"PAYLOAD","ELEMENT_SET_NO":"999","CENTER_NAME":"EARTH","INCLINATION":"53.0553","TLE_LINE1":"1 48285U 21036K   22082.76413790  .00002217  00000-0  16765-3 0  9990","RA_OF_ASC_NODE":"97.1185","TIME_SYSTEM":"UTC","ECCENTRICITY":"0.00016970"},{"REV_AT_EPOCH":"5022","GP_ID":"199538409","MEAN_ANOMALY":"297.9993","SITE":"AFETR","TLE_LINE2":"2 48286  53.0560  97.1492 0001667  62.1165 297.9993 15.06411058 50220","EPHEMERIS_TYPE":"0","MEAN_ELEMENT_THEORY":"SGP4","NORAD_CAT_ID":"48286","LAUNCH_DATE":"2021-04-29","RCS_SIZE":"LARGE","COUNTRY_CODE":"US","FILE":"3371636","MEAN_MOTION":"15.06411058","ARG_OF_PERICENTER":"62.1165","RA_OF_ASC_NODE":"97.1492","ECCENTRICITY":"0.00016670","TIME_SYSTEM":"UTC","ELEMENT_SET_NO":"999","OBJECT_TYPE":"PAYLOAD","TLE_LINE1":"1 48286U 21036L   22082.76044241  .00001249  00000-0  10268-3 0  9998","INCLINATION":"53.0560","CENTER_NAME":"EARTH","BSTAR":"0.00010268000000","CLASSIFICATION_TYPE":"U","EPOCH":"2022-03-23T18:15:02.224224","DECAY_DATE":null,"MEAN_MOTION_DOT":"0.00001249","OBJECT_ID":"2021-036L","PERIOD":"95.591","REF_FRAME":"TEME","OBJECT_NAME":"STARLINK-2547","MEAN_MOTION_DDOT":"0.0000000000000","APOAPSIS":"548.334","PERIAPSIS":"546.025","SEMIMAJOR_AXIS":"6925.315"},{"TIME_SYSTEM":"UTC","ECCENTRICITY":"0.00017500","RA_OF_ASC_NODE":"97.1460","INCLINATION":"53.0547","CENTER_NAME":"EARTH","TLE_LINE1":"1 48287U 21036M   22082.75677186  .00000384  00000-0  44702-4 0  9998","OBJECT_TYPE":"PAYLOAD","ELEMENT_SET_NO":"999","PERIOD":"95.592","OBJECT_ID":"2021-036M","DECAY_DATE":null,"MEAN_MOTION_DOT":"0.00000384","EPOCH":"2022-03-23T18:09:45.088704","CLASSIFICATION_TYPE":"U","BSTAR":"0.00004470200000","SEMIMAJOR_AXIS":"6925.362","PERIAPSIS":"546.015","APOAPSIS":"548.439","MEAN_MOTION_DDOT":"0.0000000000000","OBJECT_NAME":"STARLINK-2566","REF_FRAME":"TEME","SITE":"AFETR","MEAN_ANOMALY":"309.6481","GP_ID":"199536657","REV_AT_EPOCH":"5022","EPHEMERIS_TYPE":"0","TLE_LINE2":"2 48287  53.0547  97.1460 0001750  50.4662 309.6481 15.06395743 50221","COUNTRY_CODE":"US","RCS_SIZE":"LARGE","LAUNCH_DATE":"2021-04-29","NORAD_CAT_ID":"48287","MEAN_ELEMENT_THEORY":"SGP4","ARG_OF_PERICENTER":"50.4662","MEAN_MOTION":"15.06395743","FILE":"3371636"},{"TLE_LINE1":"1 48288U 21036N   22082.55404279 -.00001452  00000-0 -78633-4 0  9997","INCLINATION":"53.0560","CENTER_NAME":"EARTH","ELEMENT_SET_NO":"999","OBJECT_TYPE":"PAYLOAD","ECCENTRICITY":"0.00018350","TIME_SYSTEM":"UTC","RA_OF_ASC_NODE":"98.0745","PERIAPSIS":"545.966","APOAPSIS":"548.508","SEMIMAJOR_AXIS":"6925.372","OBJECT_NAME":"STARLINK-2562","REF_FRAME":"TEME","MEAN_MOTION_DDOT":"0.0000000000000","DECAY_DATE":null,"MEAN_MOTION_DOT":"-0.00001452","PERIOD":"95.593","OBJECT_ID":"2021-036N","BSTAR":"-0.00007863300000","EPOCH":"2022-03-23T13:17:49.297056","CLASSIFICATION_TYPE":"U","EPHEMERIS_TYPE":"0","TLE_LINE2":"2 48288  53.0560  98.0745 0001835  50.3496 309.7654 15.06392428 50197","SITE":"AFETR","MEAN_ANOMALY":"309.7654","REV_AT_EPOCH":"5019","GP_ID":"199536907","MEAN_MOTION":"15.06392428","FILE":"3371636","ARG_OF_PERICENTER":"50.3496","RCS_SIZE":"LARGE","COUNTRY_CODE":"US","NORAD_CAT_ID":"48288","MEAN_ELEMENT_THEORY":"SGP4","LAUNCH_DATE":"2021-04-29"},{"TLE_LINE2":"2 48289  53.0537  98.0689 0001756  55.1451 304.9703 15.06396275 50775","EPHEMERIS_TYPE":"0","SITE":"AFETR","MEAN_ANOMALY":"304.9703","GP_ID":"199506948","REV_AT_EPOCH":"5077","ARG_OF_PERICENTER":"55.1451","MEAN_MOTION":"15.06396275","FILE":"3371280","COUNTRY_CODE":"US","RCS_SIZE":"LARGE","LAUNCH_DATE":"2021-04-29","NORAD_CAT_ID":"48289","MEAN_ELEMENT_THEORY":"SGP4","INCLINATION":"53.0537","CENTER_NAME":"EARTH","TLE_LINE1":"1 48289U 21036P   22082.55035649  .00001601  00000-0  12635-3 0  9992","OBJECT_TYPE":"PAYLOAD","ELEMENT_SET_NO":"999","TIME_SYSTEM":"UTC","ECCENTRICITY":"0.00017560","RA_OF_ASC_NODE":"98.0689","SEMIMAJOR_AXIS":"6925.360","APOAPSIS":"548.441","PERIAPSIS":"546.009","MEAN_MOTION_DDOT":"0.0000000000000","OBJECT_NAME":"STARLINK-2545","REF_FRAME":"TEME","PERIOD":"95.592","OBJECT_ID":"2021-036P","DECAY_DATE":null,"MEAN_MOTION_DOT":"0.00001601","EPOCH":"2022-03-23T13:12:30.800736","CLASSIFICATION_TYPE":"U","BSTAR":"0.00012635000000"}];
